{"fetched_at":"2026-03-30T06:02:59Z","count":15439,"tles":[{"name":"STARLINK-35465","line1":"1 65871U 25223T   26087.81224575  .00036529  00000+0  12393-2 0  9992","line2":"2 65871  53.1574 205.3314 0000823  62.6590 297.4495 15.30203031 27134","category":"Starlink"}]}